NORAD_CAT_ID,OBJECT_NAME,OBJECT_TYPE,EPOCH,MEAN_MOTION,ECCENTRICITY,INCLINATION,RA_OF_ASC_NODE,ARG_OF_PERICENTER,MEAN_ANOMALY,BSTAR,MEAN_MOTION_DOT,MEAN_MOTION_DDOT,TLE_LINE0,TLE_LINE1,TLE_LINE2,SEMIMAJOR_AXIS,PERIOD,APOGEE,PERIGEE,DECAYED
40536,KOMPSAT 3A,PAYLOAD,2022-02-05 20:26:40,15.12088778,0.00020209999999999998,97.5612,340.8514,119.9258,324.3886,0.00015195,2.55e-05,0.0,0 KOMPSAT 3A,1 40536U 15014A   22036.85185755  .00002550  00000-0  15195-3 0  9992,2 40536  97.5612 340.8514 0002021 119.9258 324.3886 15.12088778379151,6907.968000000003,95.23299999999999,531.229,528.437,0.0
40536,KOMPSAT 3A,PAYLOAD,2022-02-06 02:58:49,15.12091194,0.00019769999999999998,97.5612,341.1211,120.7728,5.0477,0.00015885,2.669e-05,0.0,0 KOMPSAT 3A,1 40536U 15014A   22037.12418801  .00002669  00000-0  15885-3 0  9991,2 40536  97.5612 341.1211 0001977 120.7728   5.0477 15.12091194379199,6907.9609999999975,95.23200000000001,531.191,528.46,0.0
40536,KOMPSAT 3A,PAYLOAD,2022-02-06 14:18:16,15.12095711,0.0002097,97.5614,341.5889,116.6809,56.0009,0.00017277,2.909e-05,0.0,0 KOMPSAT 3A,1 40536U 15014A   22037.59602736  .00002909  00000-0  17277-3 0  9998,2 40536  97.5614 341.5889 0002097 116.6809  56.0009 15.12095711379268,6907.946999999999,95.23200000000001,531.26,528.363,0.0
40536,KOMPSAT 3A,PAYLOAD,2022-02-06 18:33:51,15.12097393,0.0002085,97.5614,341.7645,117.2614,300.9695,0.00017735,2.988e-05,0.0,0 KOMPSAT 3A,1 40536U 15014A   22037.77351383  .00002988  00000-0  17735-3 0  9993,2 40536  97.5614 341.7645 0002085 117.2614 300.9695 15.12097393379291,6907.941999999999,95.23200000000001,531.247,528.366,0.0
40536,KOMPSAT 3A,PAYLOAD,2022-02-06 21:51:45,15.12098651,0.0002126,97.5615,341.9004,118.5153,327.3733,0.00018055,3.043e-05,0.0,0 KOMPSAT 3A,1 40536U 15014A   22037.91094756  .00003043  00000-0  18055-3 0  9996,2 40536  97.5615 341.9004 0002126 118.5153 327.3733 15.12098651379318,6907.938,95.23200000000001,531.2719999999998,528.3340000000002,0.0
40536,KOMPSAT 3A,PAYLOAD,2022-02-07 02:48:52,15.121004699999999,0.0002153,97.5616,342.1048,119.3869,8.9248,0.00018461,3.113e-05,0.0,0 KOMPSAT 3A,1 40536U 15014A   22038.11727025  .00003113  00000-0  18461-3 0  9990,2 40536  97.5616 342.1048 0002153 119.3869   8.9248 15.12100470379342,6907.932,95.23200000000001,531.285,528.31,0.0
40536,KOMPSAT 3A,PAYLOAD,2022-02-07 10:42:10,15.12103057,0.0002153,97.5616,342.4302,116.6487,359.7383,0.00018857,3.182e-05,0.0,0 KOMPSAT 3A,1 40536U 15014A   22038.44595265  .00003182  00000-0  18857-3 0  9990,2 40536  97.5616 342.4302 0002153 116.6487 359.7383 15.12103057379390,6907.924,95.23200000000001,531.2769999999998,528.302,0.0
40536,KOMPSAT 3A,PAYLOAD,2022-02-07 19:57:44,15.12105776,0.0002220000000000001,97.5617,342.8122,118.1934,297.0697,0.00019123,3.228e-05,0.0,0 KOMPSAT 3A,1 40536U 15014A   22038.83176573  .00003228  00000-0  19123-3 0  9998,2 40536  97.5617 342.8122 0002220 118.1934 297.0697 15.12105776379453,6907.916,95.23100000000001,531.315,528.248,0.0
40536,KOMPSAT 3A,PAYLOAD,2022-02-08 02:51:12,15.12107723,0.0002272,97.5618,343.0963,118.9479,58.3068,0.00019229,3.246e-05,0.0,0 KOMPSAT 3A,1 40536U 15014A   22039.11888889  .00003246  00000-0  19229-3 0  9997,2 40536  97.5618 343.0963 0002272 118.9479  58.3068 15.12107723379497,6907.91,95.23100000000001,531.345,528.206,0.0
40536,KOMPSAT 3A,PAYLOAD,2022-02-08 10:37:42,15.12109612,0.00022569999999999996,97.5618,343.4171,117.9385,21.7402,0.00019121,3.228e-05,0.0,0 KOMPSAT 3A,1 40536U 15014A   22039.44285537  .00003228  00000-0  19121-3 0  9995,2 40536  97.5618 343.4171 0002257 117.9385  21.7402 15.12109612379541,6907.905,95.23100000000001,531.3290000000002,528.21,0.0
40536,KOMPSAT 3A,PAYLOAD,2022-02-08 19:46:26,15.12111479,0.00023040000000000002,97.5618,343.7944,117.9957,294.7157,0.00018787,3.17e-05,0.0,0 KOMPSAT 3A,1 40536U 15014A   22039.82391736  .00003170  00000-0  18787-3 0  9999,2 40536  97.5618 343.7944 0002304 117.9957 294.7157 15.12111479379600,6907.899,95.23100000000001,531.355,528.172,0.0
40536,KOMPSAT 3A,PAYLOAD,2022-02-08 21:30:15,15.12111717,0.0002318,97.5619,343.8658,117.8927,327.0155,0.00018647,3.146e-05,0.0,0 KOMPSAT 3A,1 40536U 15014A   22039.89601050  .00003146  00000-0  18647-3 0  9997,2 40536  97.5619 343.8658 0002318 117.8927 327.0155 15.12111717379619,6907.898,95.23100000000001,531.364,528.1619999999998,0.0
40536,KOMPSAT 3A,PAYLOAD,2022-02-09 03:59:07,15.12112936,0.00023209999999999998,97.5619,344.1331,117.057,356.9794,0.00018315,3.089e-05,0.0,0 KOMPSAT 3A,1 40536U 15014A   22040.16606330  .00003089  00000-0  18315-3 0  9993,2 40536  97.5619 344.1331 0002321 117.0570 356.9794 15.12112936379659,6907.894,95.23100000000001,531.363,528.156,0.0
40536,KOMPSAT 3A,PAYLOAD,2022-02-09 12:00:46,15.12114226,0.0002319,97.5618,344.4642,117.1902,16.4234,0.00017797,2.9999999999999997e-05,0.0,0 KOMPSAT 3A,1 40536U 15014A   22040.50053499  .00003000  00000-0  17797-3 0  9999,2 40536  97.5618 344.4642 0002319 117.1902  16.4234 15.12114226379700,6907.89,95.23100000000001,531.357,528.154,0.0
40536,KOMPSAT 3A,PAYLOAD,2022-02-09 19:44:08,15.121147099999998,0.00023500000000000002,97.5617,344.783,116.0979,328.0727,0.00016787,2.826e-05,0.0,0 KOMPSAT 3A,1 40536U 15014A   22040.82231993  .00002826  00000-0  16787-3 0  9994,2 40536  97.5617 344.7830 0002350 116.0979 328.0727 15.12114710379750,6907.889,95.23100000000001,531.377,528.131,0.0
40536,KOMPSAT 3A,PAYLOAD,2022-02-10 03:51:12,15.12115691,0.0002352,97.5618,345.1179,115.5699,8.7102,0.00016112,2.71e-05,0.0,0 KOMPSAT 3A,1 40536U 15014A   22041.16056549  .00002710  00000-0  16112-3 0  9998,2 40536  97.5618 345.1179 0002352 115.5699   8.7102 15.12115691379801,6907.8859999999995,95.23100000000001,531.376,528.126,0.0
40536,KOMPSAT 3A,PAYLOAD,2022-02-10 10:16:14,15.121163500000002,0.000233,97.5618,345.3827,116.0175,22.8502,0.00015568,2.616e-05,0.0,0 KOMPSAT 3A,1 40536U 15014A   22041.42794510  .00002616  00000-0  15568-3 0  9993,2 40536  97.5618 345.3827 0002330 116.0175  22.8502 15.12116350379842,6907.884,95.23100000000001,531.359,528.139,0.0
40536,KOMPSAT 3A,PAYLOAD,2022-02-10 19:24:59,15.121162099999998,0.00023849999999999997,97.5616,345.7599,113.4812,298.4823,0.00014002,2.347e-05,0.0,0 KOMPSAT 3A,1 40536U 15014A   22041.80901852  .00002347  00000-0  14002-3 0  9997,2 40536  97.5616 345.7599 0002385 113.4812 298.4823 15.12116210379908,6907.884,95.23100000000001,531.3969999999998,528.102,0.0
40536,KOMPSAT 3A,PAYLOAD,2022-02-11 03:22:57,15.1211698,0.0002404,97.5614,346.0884,113.2964,304.3787,0.00013339,2.232e-05,0.0,0 KOMPSAT 3A,1 40536U 15014A   22042.14094047  .00002232  00000-0  13339-3 0  9999,2 40536  97.5614 346.0884 0002404 113.2964 304.3787 15.12116980379950,6907.882,95.23100000000001,531.408,528.086,0.0
40536,KOMPSAT 3A,PAYLOAD,2022-02-11 10:07:58,15.12117835,0.00023969999999999997,97.5614,346.3669,113.0211,34.7583,0.00012998,2.174e-05,0.0,0 KOMPSAT 3A,1 40536U 15014A   22042.42220057  .00002174  00000-0  12998-3 0  9997,2 40536  97.5614 346.3669 0002397 113.0211  34.7583 15.12117835379990,6907.879,95.23100000000001,531.4,528.089,0.0
40536,KOMPSAT 3A,PAYLOAD,2022-02-11 15:00:32,15.12118379,0.00024290000000000002,97.5613,346.5679,113.2407,59.8614,0.00012691,2.121e-05,0.0,0 KOMPSAT 3A,1 40536U 15014A   22042.62537819  .00002121  00000-0  12691-3 0  9998,2 40536  97.5613 346.5679 0002429 113.2407  59.8614 15.12118379380020,6907.878000000002,95.23100000000001,531.4209999999998,528.065,0.0
40536,KOMPSAT 3A,PAYLOAD,2022-02-11 20:58:30,15.121194000000001,0.00024119999999999998,97.5613,346.814,111.726,333.7037,0.00012559,2.098e-05,0.0,0 KOMPSAT 3A,1 40536U 15014A   22042.87395921  .00002098  00000-0  12559-3 0  9997,2 40536  97.5613 346.8140 0002412 111.7260 333.7037 15.12119400380061,6907.875,95.23100000000001,531.406,528.0740000000002,0.0
40536,KOMPSAT 3A,PAYLOAD,2022-02-12 03:30:51,15.12120615,0.00024380000000000002,97.5613,347.0838,111.3312,16.3969,0.00012496,2.087e-05,0.0,0 KOMPSAT 3A,1 40536U 15014A   22043.14643065  .00002087  00000-0  12496-3 0  9991,2 40536  97.5613 347.0838 0002438 111.3312  16.3969 15.12120615380103,6907.871,95.23,531.42,528.052,0.0
40536,KOMPSAT 3A,PAYLOAD,2022-02-12 11:29:28,15.12122426,0.00024859999999999997,97.5613,347.4128,110.8972,24.9859,0.00012686,2.12e-05,0.0,0 KOMPSAT 3A,1 40536U 15014A   22043.47879941  .00002120  00000-0  12686-3 0  9990,2 40536  97.5613 347.4128 0002486 110.8972  24.9859 15.12122426380158,6907.865,95.23,531.448,528.013,0.0
40536,KOMPSAT 3A,PAYLOAD,2022-02-12 20:47:44,15.12125184,0.00024930000000000004,97.5613,347.7965,111.2231,333.7494,0.0001329,2.224e-05,0.0,0 KOMPSAT 3A,1 40536U 15014A   22043.86648358  .00002224  00000-0  13290-3 0  9996,2 40536  97.5613 347.7965 0002493 111.2231 333.7494 15.12125184380218,6907.857,95.23,531.444,528.0,0.0
40536,KOMPSAT 3A,PAYLOAD,2022-02-13 04:50:57,15.12127321,0.0002503,97.5612,348.1288,111.9132,358.6293,0.00013643,2.285e-05,0.0,0 KOMPSAT 3A,1 40536U 15014A   22044.20205223  .00002285  00000-0  13643-3 0  9994,2 40536  97.5612 348.1288 0002503 111.9132 358.6293 15.12127321380262,6907.851,95.23,531.445,527.987,0.0
40536,KOMPSAT 3A,PAYLOAD,2022-02-13 11:12:01,15.12129573,0.0002556,97.5612,348.3907,110.6159,359.5623,0.00014292,2.397e-05,0.0,0 KOMPSAT 3A,1 40536U 15014A   22044.46667918  .00002397  00000-0  14292-3 0  9990,2 40536  97.5612 348.3907 0002556 110.6159 359.5623 15.12129573380308,6907.844,95.23,531.474,527.943,0.0
40536,KOMPSAT 3A,PAYLOAD,2022-02-13 14:39:08,15.12131368,0.0002592,97.5612,348.533,110.6362,62.037,0.00015067,2.531e-05,0.0,0 KOMPSAT 3A,1 40536U 15014A   22044.61051291  .00002531  00000-0  15067-3 0  9999,2 40536  97.5612 348.5330 0002592 110.6362  62.0370 15.12131368380328,6907.8380000000025,95.23,531.494,527.913,0.0
40536,KOMPSAT 3A,PAYLOAD,2022-02-13 18:53:38,15.12132913,0.00025180000000000005,97.5611,348.7078,110.6075,303.5739,0.000155,2.606e-05,0.0,0 KOMPSAT 3A,1 40536U 15014A   22044.78725250  .00002606  00000-0  15500-3 0  9995,2 40536  97.5611 348.7078 0002518 110.6075 303.5739 15.12132913380359,6907.834,95.23,531.438,527.9590000000002,0.0
